*******************************************************************************
Ephemeris / WWW_USER Fri Mar  7 10:17:23 2025 Pasadena, USA      / Horizons    
*******************************************************************************
Target body name: (2018 PK21)                     {source: JPL#33}
Center body name: Earth (399)                     {source: DE441}
Center-site name: Mauna Kea
*******************************************************************************
Start time      : A.D. 2018-Dec-24 03:59:00.0000 UT      
Stop  time      : A.D. 2018-Dec-24 16:43:00.0000 UT      
Step-size       : 1 minutes
*******************************************************************************
Target pole/equ : undefined
Target radii    : undefined                                                    
Center geodetic : 204.5278, 19.8260847, 4.21024   {E-lon(deg),Lat(deg),Alt(km)}
Center cylindric: 204.5278, 6006.35451, 2151.0229 {E-lon(deg),Dxy(km),Dz(km)}
Center pole/equ : ITRF93                          {East-longitude positive}
Center radii    : 6378.137, 6378.137, 6356.752 km {Equator_a, b, pole_c}       
Target primary  : Sun
Vis. interferer : MOON (R_eq= 1737.400) km        {source: DE441}
Rel. light bend : Sun                             {source: DE441}
Rel. lght bnd GM: 1.3271E+11 km^3/s^2                                          
Small-body perts: Yes                             {source: SB441-N16}
Atmos refraction: NO (AIRLESS)
RA format       : HMS
Time format     : CAL 
Calendar mode   : Mixed Julian/Gregorian
RTS-only print  : NO       
EOP file        : eop.250306.p250602                                           
EOP coverage    : DATA-BASED 1962-JAN-20 TO 2025-MAR-06. PREDICTS-> 2025-JUN-01
Units conversion: 1 au= 149597870.700 km, c= 299792.458 km/s, 1 day= 86400.0 s 
Table cut-offs 1: Elevation (-90.0deg=NO ),Airmass (>38.000=NO), Daylight (YES)
Table cut-offs 2: Solar elongation (  0.0,180.0=NO ),Local Hour Angle( 0.0=NO )
Table cut-offs 3: RA/DEC angular rate (     0.0=NO )                           
*******************************************************************************
Initial IAU76/J2000 heliocentric ecliptic osculating elements (au, days, deg.):
  EPOCH=  2458678.5 ! 2019-Jul-14.00 (TDB)         Residual RMS= .18538        
   EC= .08059571149071894  QR= .9080173735553244   TP= 2458556.3979336754      
   OM= 305.3714803879685   W=  224.0867446587677   IN= 1.196977749955446       
  Equivalent ICRF heliocentric cartesian coordinates (au, au/d):
   X= 5.084898226316541E-01  Y=-8.259633024476691E-01  Z=-3.605371187528673E-01
  VX= 1.486595997640644E-02 VY= 6.429710771461657E-03 VZ= 3.158008025433540E-03
Asteroid physical parameters (km, seconds, rotational period in hours):        
   GM= n.a.                RAD= n.a.               ROTPER= n.a.                
   H= 25.88                G= .150                 B-V= n.a.                   
                           ALBEDO= n.a.            STYP= n.a.                  
*******************************************************************************
 Date__(UT)__HR:MN     R.A._________(ICRF)_________DEC
******************************************************
$$SOE
 2018-Dec-24 10:08  m  23 37 11.321202 +02 03 35.46990
 2018-Dec-24 10:09  m  23 37 11.424265 +02 03 35.91362
 2018-Dec-24 10:10  m  23 37 11.527380 +02 03 36.35735
 2018-Dec-24 10:11  m  23 37 11.630548 +02 03 36.80108
 2018-Dec-24 10:12  m  23 37 11.733768 +02 03 37.24481
 2018-Dec-24 10:13  m  23 37 11.837040 +02 03 37.68854
 2018-Dec-24 10:14  m  23 37 11.940364 +02 03 38.13228
 2018-Dec-24 10:15  m  23 37 12.043741 +02 03 38.57601
 2018-Dec-24 10:16  m  23 37 12.147170 +02 03 39.01975
 2018-Dec-24 10:17  m  23 37 12.250650 +02 03 39.46348
 2018-Dec-24 10:18  m  23 37 12.354183 +02 03 39.90722
 2018-Dec-24 10:19  m  23 37 12.457768 +02 03 40.35096
 2018-Dec-24 10:20  m  23 37 12.561405 +02 03 40.79471
 2018-Dec-24 10:21  m  23 37 12.665094 +02 03 41.23845
 2018-Dec-24 10:22  m  23 37 12.768835 +02 03 41.68220
 2018-Dec-24 10:23  m  23 37 12.872628 +02 03 42.12595
 2018-Dec-24 10:24  m  23 37 12.976473 +02 03 42.56970
 2018-Dec-24 10:25  m  23 37 13.080370 +02 03 43.01346
 2018-Dec-24 10:26  m  23 37 13.184318 +02 03 43.45721
 2018-Dec-24 10:27  m  23 37 13.288319 +02 03 43.90097
 2018-Dec-24 10:28  m  23 37 13.392371 +02 03 44.34474
 2018-Dec-24 10:29  m  23 37 13.496475 +02 03 44.78851
 2018-Dec-24 10:30  m  23 37 13.600630 +02 03 45.23228
 2018-Dec-24 10:31  m  23 37 13.704837 +02 03 45.67605
 2018-Dec-24 10:32  m  23 37 13.809096 +02 03 46.11983
 2018-Dec-24 10:33  m  23 37 13.913406 +02 03 46.56361
 2018-Dec-24 10:34  m  23 37 14.017768 +02 03 47.00740
 2018-Dec-24 10:35  m  23 37 14.122181 +02 03 47.45119
 2018-Dec-24 10:36  m  23 37 14.226646 +02 03 47.89498
 2018-Dec-24 10:37  m  23 37 14.331162 +02 03 48.33878
 2018-Dec-24 10:38  m  23 37 14.435730 +02 03 48.78258
 2018-Dec-24 10:39  m  23 37 14.540348 +02 03 49.22639
 2018-Dec-24 10:40  m  23 37 14.645018 +02 03 49.67020
 2018-Dec-24 10:41  m  23 37 14.749739 +02 03 50.11401
 2018-Dec-24 10:42  m  23 37 14.854512 +02 03 50.55783
 2018-Dec-24 10:43  m  23 37 14.959335 +02 03 51.00166
 2018-Dec-24 10:44  m  23 37 15.064209 +02 03 51.44549
 2018-Dec-24 10:45  m  23 37 15.169135 +02 03 51.88933
 2018-Dec-24 10:46  m  23 37 15.274111 +02 03 52.33317
 2018-Dec-24 10:47  m  23 37 15.379138 +02 03 52.77702
 2018-Dec-24 10:48  m  23 37 15.484216 +02 03 53.22087
 2018-Dec-24 10:49  m  23 37 15.589344 +02 03 53.66473
 2018-Dec-24 10:50  m  23 37 15.694524 +02 03 54.10859
 2018-Dec-24 10:51  m  23 37 15.799754 +02 03 54.55246
 2018-Dec-24 10:52  m  23 37 15.905034 +02 03 54.99634
 2018-Dec-24 10:53  m  23 37 16.010365 +02 03 55.44022
 2018-Dec-24 10:54  m  23 37 16.115746 +02 03 55.88411
 2018-Dec-24 10:55  m  23 37 16.221178 +02 03 56.32801
 2018-Dec-24 10:56  m  23 37 16.326660 +02 03 56.77191
 2018-Dec-24 10:57  m  23 37 16.432193 +02 03 57.21582
 2018-Dec-24 10:58  m  23 37 16.537775 +02 03 57.65974
 2018-Dec-24 10:59  m  23 37 16.643408 +02 03 58.10366
 2018-Dec-24 11:00  m  23 37 16.749090 +02 03 58.54759
 2018-Dec-24 11:01  m  23 37 16.854823 +02 03 58.99153
 2018-Dec-24 11:02  m  23 37 16.960605 +02 03 59.43548
 2018-Dec-24 11:03  m  23 37 17.066437 +02 03 59.87943
 2018-Dec-24 11:04  m  23 37 17.172319 +02 04 00.32339
 2018-Dec-24 11:05  m  23 37 17.278251 +02 04 00.76736
 2018-Dec-24 11:06  m  23 37 17.384232 +02 04 01.21134
 2018-Dec-24 11:07  m  23 37 17.490263 +02 04 01.65532
 2018-Dec-24 11:08  m  23 37 17.596343 +02 04 02.09931
 2018-Dec-24 11:09  m  23 37 17.702473 +02 04 02.54332
 2018-Dec-24 11:10  m  23 37 17.808652 +02 04 02.98733
 2018-Dec-24 11:11  m  23 37 17.914880 +02 04 03.43134
 2018-Dec-24 11:12  m  23 37 18.021157 +02 04 03.87537
 2018-Dec-24 11:13  m  23 37 18.127483 +02 04 04.31941
 2018-Dec-24 11:14  m  23 37 18.233858 +02 04 04.76345
 2018-Dec-24 11:15  m  23 37 18.340283 +02 04 05.20750
 2018-Dec-24 11:16  m  23 37 18.446755 +02 04 05.65157
 2018-Dec-24 11:17  m  23 37 18.553277 +02 04 06.09564
 2018-Dec-24 11:18  m  23 37 18.659847 +02 04 06.53972
 2018-Dec-24 11:19  m  23 37 18.766466 +02 04 06.98381
 2018-Dec-24 11:20  m  23 37 18.873133 +02 04 07.42791
 2018-Dec-24 11:21  m  23 37 18.979849 +02 04 07.87202
 2018-Dec-24 11:22  m  23 37 19.086613 +02 04 08.31614
 2018-Dec-24 11:23  m  23 37 19.193425 +02 04 08.76027
 2018-Dec-24 11:24  m  23 37 19.300285 +02 04 09.20441
 2018-Dec-24 11:25  m  23 37 19.407193 +02 04 09.64856
 2018-Dec-24 11:26  m  23 37 19.514149 +02 04 10.09273
 2018-Dec-24 11:27  m  23 37 19.621153 +02 04 10.53690
 2018-Dec-24 11:28  m  23 37 19.728204 +02 04 10.98108
 2018-Dec-24 11:29  m  23 37 19.835303 +02 04 11.42527
 2018-Dec-24 11:30  m  23 37 19.942450 +02 04 11.86948
 2018-Dec-24 11:31  m  23 37 20.049644 +02 04 12.31369
 2018-Dec-24 11:32  m  23 37 20.156885 +02 04 12.75792
 2018-Dec-24 11:33  m  23 37 20.264174 +02 04 13.20216
 2018-Dec-24 11:34  m  23 37 20.371510 +02 04 13.64640
 2018-Dec-24 11:35  m  23 37 20.478893 +02 04 14.09066
 2018-Dec-24 11:36  m  23 37 20.586322 +02 04 14.53494
 2018-Dec-24 11:37  m  23 37 20.693799 +02 04 14.97922
 2018-Dec-24 11:38  m  23 37 20.801322 +02 04 15.42352
 2018-Dec-24 11:39  m  23 37 20.908892 +02 04 15.86782
 2018-Dec-24 11:40  m  23 37 21.016508 +02 04 16.31214
 2018-Dec-24 11:41  m  23 37 21.124171 +02 04 16.75647
 2018-Dec-24 11:42  m  23 37 21.231880 +02 04 17.20082
 2018-Dec-24 11:43  m  23 37 21.339635 +02 04 17.64517
 2018-Dec-24 11:44  m  23 37 21.447436 +02 04 18.08954
 2018-Dec-24 11:45  m  23 37 21.555283 +02 04 18.53392
 2018-Dec-24 11:46  m  23 37 21.663176 +02 04 18.97832
 2018-Dec-24 11:47  m  23 37 21.771115 +02 04 19.42273
 2018-Dec-24 11:48  m  23 37 21.879099 +02 04 19.86715
 2018-Dec-24 11:49  m  23 37 21.987129 +02 04 20.31158
 2018-Dec-24 11:50  m  23 37 22.095204 +02 04 20.75603
 2018-Dec-24 11:51  m  23 37 22.203325 +02 04 21.20048
 2018-Dec-24 11:52  m  23 37 22.311491 +02 04 21.64496
 2018-Dec-24 11:53  m  23 37 22.419701 +02 04 22.08945
 2018-Dec-24 11:54  m  23 37 22.527957 +02 04 22.53395
 2018-Dec-24 11:55  m  23 37 22.636257 +02 04 22.97846
 2018-Dec-24 11:56  m  23 37 22.744603 +02 04 23.42299
 2018-Dec-24 11:57  m  23 37 22.852992 +02 04 23.86753
 2018-Dec-24 11:58  m  23 37 22.961426 +02 04 24.31209
 2018-Dec-24 11:59  m  23 37 23.069905 +02 04 24.75666
 2018-Dec-24 12:00  m  23 37 23.178427 +02 04 25.20124
 2018-Dec-24 12:01  m  23 37 23.286994 +02 04 25.64584
 2018-Dec-24 12:02  m  23 37 23.395605 +02 04 26.09046
 2018-Dec-24 12:03  m  23 37 23.504259 +02 04 26.53509
 2018-Dec-24 12:04  m  23 37 23.612957 +02 04 26.97973
 2018-Dec-24 12:05  m  23 37 23.721699 +02 04 27.42439
 2018-Dec-24 12:06  m  23 37 23.830484 +02 04 27.86906
 2018-Dec-24 12:07  m  23 37 23.939313 +02 04 28.31375
 2018-Dec-24 12:08  m  23 37 24.048184 +02 04 28.75846
 2018-Dec-24 12:09  m  23 37 24.157099 +02 04 29.20318
 2018-Dec-24 12:10  m  23 37 24.266056 +02 04 29.64791
